[{"OBJECT_NAME":"SAUDISAT 2","OBJECT_ID":"2004-025F","EPOCH":"2026-03-09T23:26:36.872160","MEAN_MOTION":14.56616688,"ECCENTRICITY":0.00236721,"INCLINATION":98.5497,"RA_OF_ASC_NODE":66.4072,"ARG_OF_PERICENTER":240.2561,"MEAN_ANOMALY":119.6281,"EPHEMERIS_TYPE":0,"CLASSIFICATION_TYPE":"U","NORAD_CAT_ID":28371,"ELEMENT_SET_NO":999,"REV_AT_EPOCH":15130,"BSTAR":0.00011077467,"MEAN_MOTION_DOT":4.46e-6,"MEAN_MOTION_DDOT":0},{"OBJECT_NAME":"CZ-6A DEB","OBJECT_ID":"2024-140SY","EPOCH":"2026-03-09T01:15:11.123712","MEAN_MOTION":14.67257968,"ECCENTRICITY":0.00978307,"INCLINATION":89.0537,"RA_OF_ASC_NODE":285.6975,"ARG_OF_PERICENTER":222.0271,"MEAN_ANOMALY":137.3413,"EPHEMERIS_TYPE":0,"CLASSIFICATION_TYPE":"U","NORAD_CAT_ID":61287,"ELEMENT_SET_NO":999,"REV_AT_EPOCH":8165,"BSTAR":0.0017028227,"MEAN_MOTION_DOT":0.00010334,"MEAN_MOTION_DDOT":0}]
